{
  "type": "FeatureCollection",
  "features": [
    {
      "type": "Feature",
      "properties": {
        "norad_id": 34964,
        "name": "COSMOS 2251 DEB",
        "group": "cosmos-2251-debris",
        "lat": 64.09611465385782,
        "lon": 3.9758032145010413,
        "alt_km": 945.5775389467381,
        "timestamp": "2025-12-24T07:45:06.594445+00:00",
        "meta_object_name": "COSMOS 2251 DEB",
        "meta_object_id": "1993-036AET",
        "meta_epoch": "2025-12-18T07:25:04.519776",
        "meta_mean_motion": 14.00628567,
        "meta_eccentricity": 0.02123167,
        "meta_inclination": 73.9712,
        "meta_ra_of_asc_node": 338.1457,
        "meta_arg_of_pericenter": 195.4091,
        "meta_mean_anomaly": 164.0515,
        "meta_ephemeris_type": 0,
        "meta_classification_type": "U",
        "meta_norad_cat_id": 34964,
        "meta_element_set_no": 999,
        "meta_rev_at_epoch": 84556,
        "meta_bstar": 0.00089791859,
        "meta_mean_motion_dot": 1.6e-05,
        "meta_mean_motion_ddot": 0,
        "tle_line1": "1 34964U 93036AET 25352.30908009  .00001600  00000+0  89792-3 0  9997",
        "tle_line2": "2 34964  73.9712 338.1457 0212316 195.4091 164.0515 14.00628567845561"
      },
      "geometry": {
        "type": "Point",
        "coordinates": [
          3.9758032145010413,
          64.09611465385782
        ]
      }
    },
    {
      "type": "Feature",
      "properties": {
        "norad_id": 34965,
        "name": "COSMOS 2251 DEB",
        "group": "cosmos-2251-debris",
        "lat": -14.213565521350516,
        "lon": 102.62935748850099,
        "alt_km": 741.3161447030361,
        "timestamp": "2025-12-24T07:45:06.594455+00:00",
        "meta_object_name": "COSMOS 2251 DEB",
        "meta_object_id": "1993-036AEU",
        "meta_epoch": "2025-12-23T13:35:23.542944",
        "meta_mean_motion": 14.48733014,
        "meta_eccentricity": 0.00264239,
        "meta_inclination": 74.0518,
        "meta_ra_of_asc_node": 108.1991,
        "meta_arg_of_pericenter": 234.0681,
        "meta_mean_anomaly": 125.8027,
        "meta_ephemeris_type": 0,
        "meta_classification_type": "U",
        "meta_norad_cat_id": 34965,
        "meta_element_set_no": 999,
        "meta_rev_at_epoch": 87270,
        "meta_bstar": 0.00031518339,
        "meta_mean_motion_dot": 1.166e-05,
        "meta_mean_motion_ddot": 0,
        "tle_line1": "1 34965U 93036AEU 25357.56624471  .00001166  00000+0  31518-3 0  9999",
        "tle_line2": "2 34965  74.0518 108.1991 0026423 234.0681 125.8027 14.48733014872708"
      },
      "geometry": {
        "type": "Point",
        "coordinates": [
          102.62935748850099,
          -14.213565521350516
        ]
      }
    },
    {
      "type": "Feature",
      "properties": {
        "norad_id": 34967,
        "name": "COSMOS 2251 DEB",
        "group": "cosmos-2251-debris",
        "lat": 66.4405224624684,
        "lon": -86.57050701422314,
        "alt_km": 722.3844528728187,
        "timestamp": "2025-12-24T07:45:06.594465+00:00",
        "meta_object_name": "COSMOS 2251 DEB",
        "meta_object_id": "1993-036AEW",
        "meta_epoch": "2025-12-13T00:27:20.673792",
        "meta_mean_motion": 14.44269018,
        "meta_eccentricity": 0.00380101,
        "meta_inclination": 73.9933,
        "meta_ra_of_asc_node": 253.3374,
        "meta_arg_of_pericenter": 39.5345,
        "meta_mean_anomaly": 320.8573,
        "meta_ephemeris_type": 0,
        "meta_classification_type": "U",
        "meta_norad_cat_id": 34967,
        "meta_element_set_no": 999,
        "meta_rev_at_epoch": 64961,
        "meta_bstar": 0.0011451852,
        "meta_mean_motion_dot": 3.946e-05,
        "meta_mean_motion_ddot": 0,
        "tle_line1": "1 34967U 93036AEW 25347.01898928  .00003946  00000+0  11452-2 0  9992",
        "tle_line2": "2 34967  73.9933 253.3374 0038010  39.5345 320.8573 14.44269018649616"
      },
      "geometry": {
        "type": "Point",
        "coordinates": [
          -86.57050701422314,
          66.4405224624684
        ]
      }
    },
    {
      "type": "Feature",
      "properties": {
        "norad_id": 34968,
        "name": "COSMOS 2251 DEB",
        "group": "cosmos-2251-debris",
        "lat": -15.790914170199732,
        "lon": 49.63319345544166,
        "alt_km": 750.4984178903651,
        "timestamp": "2025-12-24T07:45:06.594474+00:00",
        "meta_object_name": "COSMOS 2251 DEB",
        "meta_object_id": "1993-036AEX",
        "meta_epoch": "2025-12-23T01:14:18.762720",
        "meta_mean_motion": 14.59422462,
        "meta_eccentricity": 0.00871055,
        "meta_inclination": 74.0381,
        "meta_ra_of_asc_node": 227.4133,
        "meta_arg_of_pericenter": 345.2402,
        "meta_mean_anomaly": 14.6221,
        "meta_ephemeris_type": 0,
        "meta_classification_type": "U",
        "meta_norad_cat_id": 34968,
        "meta_element_set_no": 999,
        "meta_rev_at_epoch": 88628,
        "meta_bstar": 0.00012972503,
        "meta_mean_motion_dot": 6.15e-06,
        "meta_mean_motion_ddot": 0,
        "tle_line1": "1 34968U 93036AEX 25357.05160605  .00000615  00000+0  12973-3 0  9992",
        "tle_line2": "2 34968  74.0381 227.4133 0087105 345.2402  14.6221 14.59422462886285"
      },
      "geometry": {
        "type": "Point",
        "coordinates": [
          49.63319345544166,
          -15.790914170199732
        ]
      }
    },
    {
      "type": "Feature",
      "properties": {
        "norad_id": 34969,
        "name": "COSMOS 2251 DEB",
        "group": "cosmos-2251-debris",
        "lat": -53.955469048704074,
        "lon": -154.82330123798846,
        "alt_km": 803.908099871237,
        "timestamp": "2025-12-24T07:45:06.594484+00:00",
        "meta_object_name": "COSMOS 2251 DEB",
        "meta_object_id": "1993-036AEY",
        "meta_epoch": "2025-12-21T18:18:22.827744",
        "meta_mean_motion": 14.32268431,
        "meta_eccentricity": 0.00731947,
        "meta_inclination": 74.0139,
        "meta_ra_of_asc_node": 6.6546,
        "meta_arg_of_pericenter": 137.5862,
        "meta_mean_anomaly": 223.0979,
        "meta_ephemeris_type": 0,
        "meta_classification_type": "U",
        "meta_norad_cat_id": 34969,
        "meta_element_set_no": 999,
        "meta_rev_at_epoch": 65266,
        "meta_bstar": 0.0001981389,
        "meta_mean_motion_dot": 5.25e-06,
        "meta_mean_motion_ddot": 0,
        "tle_line1": "1 34969U 93036AEY 25355.76276421  .00000525  00000+0  19814-3 0  9994",
        "tle_line2": "2 34969  74.0139   6.6546 0073194 137.5862 223.0979 14.32268431652661"
      },
      "geometry": {
        "type": "Point",
        "coordinates": [
          -154.82330123798846,
          -53.955469048704074
        ]
      }
    },
    {
      "type": "Feature",
      "properties": {
        "norad_id": 34971,
        "name": "COSMOS 2251 DEB",
        "group": "cosmos-2251-debris",
        "lat": 70.24826613279838,
        "lon": 29.834692868998154,
        "alt_km": 655.1751237669441,
        "timestamp": "2025-12-24T07:45:06.594495+00:00",
        "meta_object_name": "COSMOS 2251 DEB",
        "meta_object_id": "1993-036AFA",
        "meta_epoch": "2025-12-18T11:38:13.277760",
        "meta_mean_motion": 14.55642375,
        "meta_eccentricity": 0.00693978,
        "meta_inclination": 73.9787,
        "meta_ra_of_asc_node": 274.0839,
        "meta_arg_of_pericenter": 138.3039,
        "meta_mean_anomaly": 342.538,
        "meta_ephemeris_type": 0,
        "meta_classification_type": "U",
        "meta_norad_cat_id": 34971,
        "meta_element_set_no": 999,
        "meta_rev_at_epoch": 66256,
        "meta_bstar": 0.00012982435,
        "meta_mean_motion_dot": 5.55e-06,
        "meta_mean_motion_ddot": 0,
        "tle_line1": "1 34971U 93036AFA 25352.48487590  .00000555  00000+0  12982-3 0  9996",
        "tle_line2": "2 34971  73.9787 274.0839 0069397 138.3039 342.5380 14.55642375662563"
      },
      "geometry": {
        "type": "Point",
        "coordinates": [
          29.834692868998154,
          70.24826613279838
        ]
      }
    },
    {
      "type": "Feature",
      "properties": {
        "norad_id": 34972,
        "name": "COSMOS 2251 DEB",
        "group": "cosmos-2251-debris",
        "lat": -6.042606074303363,
        "lon": 25.486698114997743,
        "alt_km": 677.5652895962221,
        "timestamp": "2025-12-24T07:45:06.594532+00:00",
        "meta_object_name": "COSMOS 2251 DEB",
        "meta_object_id": "1993-036AFB",
        "meta_epoch": "2025-12-21T13:38:31.765344",
        "meta_mean_motion": 14.73012342,
        "meta_eccentricity": 0.00329831,
        "meta_inclination": 73.9871,
        "meta_ra_of_asc_node": 32.6088,
        "meta_arg_of_pericenter": 189.946,
        "meta_mean_anomaly": 322.6145,
        "meta_ephemeris_type": 0,
        "meta_classification_type": "U",
        "meta_norad_cat_id": 34972,
        "meta_element_set_no": 999,
        "meta_rev_at_epoch": 87780,
        "meta_bstar": 0.0011476529,
        "meta_mean_motion_dot": 7.412e-05,
        "meta_mean_motion_ddot": 0,
        "tle_line1": "1 34972U 93036AFB 25355.56842321  .00007412  00000+0  11477-2 0  9992",
        "tle_line2": "2 34972  73.9871  32.6088 0032983 189.9460 322.6145 14.73012342877801"
      },
      "geometry": {
        "type": "Point",
        "coordinates": [
          25.486698114997743,
          -6.042606074303363
        ]
      }
    }
  ]
}